# From MPEC 2026-E44
C/2020 H11 (PANSTARRS-Lemmon),e,151.3680,303.0585,91.3460,5666,0.0000023,0.99865479,0.0000,09/11.3770/2020,2000,g  8.5,4.0
# From MPEC 2026-E44
C/2020 J1 (SONEAR),e,142.3109,226.5536,341.5139,3889,0.0000041,0.99914029,0.0000,04/17.4803/2021,2000,g  8.5,3.2
# From MPEC 2026-E43
C/2020 K1 (PANSTARRS),e,89.6711,94.3668,213.9516,1615,0.0000152,0.99809633,0.0000,05/08.3306/2023,2000,g  5.5,4.0
# From MPEC 2026-E44
C/2020 K2 (PANSTARRS),h,08/03.2167/2020,90.9919,288.4427,67.2832,1.000397,8.879623,2000,6.5,4.0
# From MPEC 2026-E44
C/2020 K6 (Rankin),h,09/13.8920/2021,103.6265,291.6040,44.2393,1.001209,5.864703,2000,8.0,4.0
# From MPEC 2026-E44
C/2020 K7 (PANSTARRS),e,32.0442,286.1337,358.0014,93.60407,0.0010883,0.93181958,2.5713,04/13.0/2026,2000,g  8.0,4.0
# From MPEC 2026-E44
P/2020 K9 (Lemmon-PANSTARRS),e,23.1833,166.2402,197.1250,4.208734,0.1141502,0.31976938,215.5310,04/13.0/2026,2000,g 12.5,4.0
# From MPEC 2026-E44
A/2020 M4,e,160.0928,348.6043,104.4236,5358,0.0000025,0.99889170,0.0000,11/21.8413/2020,2000,g 14.5,2.0
# From MPEC 2026-E44
P/2020 MK4 (PANSTARRS),e,6.7806,0.6530,94.9413,6.226338,0.0634388,0.01574795,335.1851,04/13.0/2026,2000,g  8.0,4.0
# From MPEC 2026-E44
C/2020 M5 (ATLAS),h,08/19.5303/2021,93.1566,351.9783,126.2534,1.000045,3.001228,2000,9.0,4.0
# From MPEC 2026-E44
C/2020 O2 (Amaral),e,71.7671,256.7782,10.1203,4940,0.0000028,0.99901758,0.0000,08/26.8137/2021,2000,g  8.0,3.2
# From MPEC 2026-E44
P/2020 O3 (PANSTARRS),e,8.4447,266.8179,80.8375,4.645810,0.0984265,0.10234611,187.7669,04/13.0/2026,2000,g 12.0,4.0
# From MPEC 2026-E44
C/2020 P3 (ATLAS),h,04/23.2444/2021,61.8293,19.4913,82.3784,1.003972,6.818791,2000,6.0,4.0
# From MPEC 2020-QN1
C/2020 P4-B (SOHO),h,08/07.5759/2020,26.8552,171.7762,173.3726,1.000556,0.102414,2000,0.0,6.0
# From MPEC 2020-QN1
C/2020 P4-C (SOHO),h,08/05.2840/2020,37.2472,165.4148,115.8583,1.013240,0.089418,2000,-1.6,6.0
# From MPEC 2026-E44
C/2020 PV6 (PANSTARRS),e,128.1301,329.1154,71.2467,41.41298,0.0036983,0.94468515,6.1419,04/13.0/2026,2000,g 10.0,4.0
# From MPEC 2026-E44
C/2020 Q2 (PANSTARRS),e,3.3366,179.8488,118.0890,10.58899,0.0286037,0.48843538,64.9839,04/13.0/2026,2000,g 12.0,3.2
# From MPEC 2026-E44
C/2020 R2 (PANSTARRS),e,53.2010,195.1489,211.8942,424.0598,0.0001129,0.98891202,0.0000,02/25.1444/2022,2000,g  9.0,4.0
# From MPEC 2026-E44
P/2020 R5 (PANSTARRS),e,11.4394,272.9380,82.7119,4.994766,0.0882940,0.31272511,189.6881,04/13.0/2026,2000,g  9.5,6.0
# From MPEC 2026-E44
C/2020 R7 (ATLAS),e,114.9045,268.3036,347.7057,3886,0.0000041,0.99924111,0.0000,09/15.8439/2022,2000,g  7.0,3.2
# From MPEC 2026-E44
C/2020 S4 (PANSTARRS),h,02/09.8345/2023,20.5720,117.6745,21.1041,1.003205,3.371965,2000,8.5,3.2
# From MPEC 2026-E44
P/2020 S5 (PANSTARRS),e,12.3368,315.9398,53.3108,4.059921,0.1204835,0.33697781,250.0370,04/13.0/2026,2000,g 14.5,4.0
# From MPEC 2026-E44
P/2020 S7 (PANSTARRS),e,16.0635,328.0117,40.7243,5.038345,0.0871510,0.40905224,172.0177,04/13.0/2026,2000,g 14.5,4.0
# From MPEC 2026-E44
C/2020 T2 (Palomar),e,27.8614,82.9024,150.3661,257.3545,0.0002387,0.99204757,0.0000,07/10.7155/2021,2000,g 11.0,3.2
# From MPEC 2026-E44
P/2020 T3 (PANSTARRS),e,7.2995,73.9768,357.1097,3.515543,0.1495256,0.59234165,284.9948,04/13.0/2026,2000,g 18.0,3.2
# From MPEC 2026-E44
C/2020 U4 (PANSTARRS),h,04/10.4817/2022,167.0039,120.4047,70.2047,1.001806,5.363215,2000,7.0,4.0
# From MPEC 2026-E44
C/2020 U5 (PANSTARRS),h,04/28.7589/2022,97.3159,107.3132,75.4706,1.000053,3.755998,2000,8.0,4.0
# From MPC188409
C/2020 V2 (ZTF),h,05/08.6454/2023,131.6066,212.4350,162.4979,1.001248,2.229742,2000,4.9,4.0
# From MPEC 2026-E44
P/2020 V3 (PANSTARRS),e,23.0121,198.2730,249.9600,8.413740,0.0403850,0.25772027,75.9520,04/13.0/2026,2000,g  8.3,4.0
# From MPEC 2026-E44
P/2020 V4 (Rankin),e,14.2303,203.4867,257.3570,9.406347,0.0341643,0.45158331,58.9876,04/13.0/2026,2000,g  9.0,4.0
# From MPEC 2026-E44
P/2020 W1 (Rankin),e,10.7770,124.2570,265.5479,7.227412,0.0507259,0.26488607,111.3435,04/13.0/2026,2000,g 10.0,4.0
# From MPEC 2026-E44
P/2020 WJ5 (Lemmon),e,22.2900,177.7407,338.1718,6.016203,0.0667914,0.17234809,116.6339,04/13.0/2026,2000,g  8.5,4.0
# From MPEC 2026-E44
P/2020 X1 (ATLAS),e,31.6849,55.9948,323.5241,4.538169,0.1019490,0.36394384,213.4881,04/13.0/2026,2000,g 13.0,4.0
# From MPEC 2026-E44
C/2020 X2 (ATLAS),e,18.1870,105.3517,347.6449,16.56707,0.0146162,0.76837949,28.8334,04/13.0/2026,2000,g 10.6,4.0
# From MPEC 2026-E44
C/2020 X4 (Leonard),e,80.6637,161.9670,140.2447,40.27818,0.0038557,0.87037050,7.6154,04/13.0/2026,2000,g  9.0,4.0
# From MPEC 2026-E44
C/2020 Y2 (ATLAS),e,101.2530,26.5544,266.4198,1185,0.0000242,0.99734411,0.0000,06/17.5497/2022,2000,g  6.5,4.0
# From MPEC 2026-E44
C/2021 A1 (Leonard),h,01/04.2214/2022,132.7221,255.8952,225.1038,1.000271,0.613932,2000,8.5,4.0
# From MPEC 2026-E44
P/2021 A5 (PANSTARRS),e,18.1850,328.6792,62.1452,3.052315,0.1848247,0.14103999,4.4707,04/13.0/2026,2000,g 15.0,4.0
# From MPEC 2026-E44
C/2021 A6 (PANSTARRS),e,75.5531,164.0008,351.6636,23593,0.0000003,0.99966399,0.0000,05/03.5311/2021,2000,g  7.0,4.0
# From MPEC 2026-E43
C/2021 A9 (PANSTARRS),e,158.0176,314.8489,211.6868,71325,0.0000001,0.99989111,0.0000,12/04.6699/2023,2000,g  6.0,4.0
# From MPEC 2026-E44
P/2021 C2 (PANSTARRS),e,21.9318,66.4499,78.7818,9.552415,0.0333837,0.48866812,62.5095,04/13.0/2026,2000,g 12.0,4.0
# From MPEC 2026-E44
C/2021 C4 (ATLAS),e,132.8211,194.1930,319.9720,2629,0.0000073,0.99829095,0.0000,01/15.5585/2021,2000,g  9.0,4.0
# From MPEC 2026-E44
C/2021 C5 (PANSTARRS),e,50.8087,323.6758,270.8598,1685,0.0000142,0.99807831,0.0000,02/11.0556/2023,2000,g  9.0,4.0
# From MPC191586
C/2021 D2 (ZTF),h,02/03.2935/2022,83.7635,305.6112,125.1078,1.001372,2.953185,2000,9.0,4.0
# From MPEC 2026-E44
C/2021 E3 (ZTF),e,112.5207,104.4839,228.7773,3109,0.0000057,0.99942822,0.0000,06/10.4813/2022,2000,g  8.5,4.0
# From MPEC 2026-E44
A/2021 E4,e,116.4016,171.1251,48.3173,513.5290,0.0000847,0.99088050,0.0000,04/24.9103/2022,2000,g 13.5,2.0
# From MPEC 2026-G41
C/2021 G2 (ATLAS),h,09/09.1673/2024,48.4579,221.0871,343.2684,1.001111,4.982017,2000,5.5,4.0
# From MPEC 2026-E44
C/2021 G3 (PANSTARRS),e,102.8792,147.3222,10.6367,14782,0.0000005,0.99964915,0.0000,10/18.0154/2021,2000,g 10.5,4.0
# From MPEC 2026-E44
P/2021 J3 (ATLAS),e,14.5106,110.9031,125.5347,8.876747,0.0372669,0.44995593,92.3899,04/13.0/2026,2000,g  7.0,4.0
# From MPEC 2026-E44
C/2021 K2 (MASTER),h,09/08.5753/2021,100.8857,282.2931,343.2219,1.000103,5.457152,2000,8.0,4.0
# From MPEC 2026-E44
C/2021 K3 (Catalina),h,02/02.5162/2022,134.7944,114.5196,181.9717,1.003005,5.221235,2000,10.0,4.0
# From MPEC 2026-E44
C/2021 L3 (Borisov),h,02/14.8924/2022,78.5185,345.0269,91.6624,1.004097,8.462191,2000,6.0,4.0
# From MPEC 2026-E44
P/2021 N1 (ZTF),e,11.4853,301.1313,21.2135,2.980658,0.1915296,0.67574892,339.7300,04/13.0/2026,2000,g 19.0,4.0
# From MPEC 2026-E44
P/2021 N2 (Fuls),e,13.0579,221.7559,177.6501,6.947970,0.0538167,0.45168667,86.7248,04/13.0/2026,2000,g  9.5,4.0
# From MPEC 2026-E44
C/2021 N3 (PANSTARRS),e,26.7725,337.5454,304.5054,137.9293,0.0006084,0.95862876,1.2569,04/13.0/2026,2000,g  8.5,4.0
# From MPEC 2026-E44
C/2021 P1 (PANSTARRS),e,51.6047,359.7290,40.5299,2250,0.0000092,0.99805287,0.0000,06/02.2460/2022,2000,g 11.0,4.0
# From MPEC 2026-E44
C/2021 P2 (PANSTARRS),e,150.0436,32.1033,76.6876,10833,0.0000009,0.99953239,0.0000,01/22.9571/2023,2000,g  9.0,4.0
# From MPEC 2026-E44
P/2021 P3 (PANSTARRS),e,27.1661,358.2416,333.9348,4.411504,0.1063712,0.33852732,189.5230,04/13.0/2026,2000,g 14.0,4.0
# From MPEC 2026-E44
C/2021 P4 (ATLAS),e,56.4189,347.9638,175.8329,300.9381,0.0001888,0.99641669,0.0000,07/30.5879/2022,2000,g  9.5,4.0
# From MPEC 2026-E44
C/2021 Q3 (ATLAS),e,77.7060,307.9040,114.1668,74.56326,0.0015308,0.93009734,2.3550,04/13.0/2026,2000,g  8.0,4.0
# From MPEC 2026-E44
C/2021 Q4 (Fuls),h,06/10.0338/2023,71.5580,183.3381,147.0001,1.000198,7.563039,2000,6.0,4.0
# From MPEC 2026-E44
P/2021 Q5 (ATLAS),e,10.7372,239.7295,180.9752,3.284175,0.1656017,0.62415660,279.0835,04/13.0/2026,2000,g 15.0,4.0
# From MPEC 2026-E44
C/2021 Q6 (PANSTARRS),h,03/25.2966/2024,161.8279,133.5734,141.0597,1.003602,8.707229,2000,6.0,4.0
# From MPEC 2026-E44
C/2021 QM45 (PANSTARRS),e,22.7841,354.5893,72.9744,413.7200,0.0001171,0.99327666,0.0000,08/13.5016/2022,2000,g 11.0,4.0
# From MPEC 2026-E44
P/2021 R1 (PANSTARRS),e,5.5418,143.0467,219.9490,8.233075,0.0417216,0.40617560,66.3564,04/13.0/2026,2000,g 11.0,4.0
# From MPEC 2026-E44
C/2021 R2 (PANSTARRS),e,134.4767,16.3654,32.5615,20672,0.0000003,0.99964615,0.0000,12/28.6013/2021,2000,g  7.5,4.0
# From MPEC 2026-E44
P/2021 R3 (PANSTARRS),e,19.9456,304.1991,2.5786,3.767468,0.1347813,0.33236175,240.3919,04/13.0/2026,2000,g 16.0,4.0
# From MPEC 2026-E44
P/2021 R5 (Rankin),e,7.8525,219.9701,167.6064,4.799310,0.0937424,0.30549701,145.5293,04/13.0/2026,2000,g 12.0,4.0
# From MPEC 2026-E44
P/2021 R8 (Sheppard),e,2.2026,167.0064,190.8498,3.020662,0.1877375,0.29238603,309.7325,04/13.0/2026,2000,g 18.5,4.0
# From MPEC 2026-E44
C/2021 S1 (ATLAS),h,03/02.1854/2022,52.0329,299.8485,148.3643,1.002968,6.129705,2000,7.0,4.0
# From MPC191586
C/2021 S3 (PANSTARRS),e,58.5647,215.5792,6.8293,13047,0.0000007,0.99989890,0.0000,02/14.6629/2024,2000,g  5.5,4.0
# From MPEC 2026-E44
C/2021 S4 (Tsuchinshan),e,17.4830,5.4327,73.1065,151.5739,0.0005282,0.95583013,0.4384,04/13.0/2026,2000,g  6.5,4.0
# From MPEC 2026-E44
C/2021 T4 (Lemmon),e,160.7790,257.8813,329.7250,2547,0.0000077,0.99941871,0.0000,07/31.3497/2023,2000,g  7.5,4.0
# From MPEC 2026-E44
P/2021 V2 (Fuls),e,12.6884,232.2724,259.9614,9.099737,0.0359055,0.61549529,42.2486,04/13.0/2026,2000,g 10.0,4.0
# From MPEC 2026-E44
C/2021 X1 (Maury-Attard),h,05/27.4578/2023,140.1116,10.6460,334.6506,1.000888,3.234627,2000,7.0,4.0
# From MPEC 2026-E44
C/2021 Y1 (ATLAS),h,05/01.1116/2023,77.1642,244.7629,245.8577,1.001788,2.032295,2000,7.0,4.0
# From MPEC 2026-E44
C/2022 A2 (PANSTARRS),h,02/18.2728/2023,108.2032,171.6320,88.3721,1.000180,1.734899,2000,9.5,4.0
